*******************************************************************************
Ephemeris / WWW_USER Mon Mar 10 07:36:17 2025 Pasadena, USA      / Horizons    
*******************************************************************************
Target body name: Lemmon (C/2018 EF9)             {source: JPL#18}
Center body name: Earth (399)                     {source: DE441}
Center-site name: Mauna Kea
*******************************************************************************
Start time      : A.D. 2018-Aug-28 04:50:00.0000 UT      
Stop  time      : A.D. 2018-Aug-28 15:56:00.0000 UT      
Step-size       : 1 minutes
*******************************************************************************
Target pole/equ : undefined
Target radii    : undefined                                                    
Center geodetic : 204.5278, 19.8260847, 4.21024   {E-lon(deg),Lat(deg),Alt(km)}
Center cylindric: 204.5278, 6006.35451, 2151.0229 {E-lon(deg),Dxy(km),Dz(km)}
Center pole/equ : ITRF93                          {East-longitude positive}
Center radii    : 6378.137, 6378.137, 6356.752 km {Equator_a, b, pole_c}       
Target primary  : Sun
Vis. interferer : MOON (R_eq= 1737.400) km        {source: DE441}
Rel. light bend : Sun                             {source: DE441}
Rel. lght bnd GM: 1.3271E+11 km^3/s^2                                          
Small-body perts: Yes                             {source: SB441-N16}
Atmos refraction: NO (AIRLESS)
RA format       : HMS
Time format     : CAL 
Calendar mode   : Mixed Julian/Gregorian
RTS-only print  : NO       
EOP file        : eop.250307.p250603                                           
EOP coverage    : DATA-BASED 1962-JAN-20 TO 2025-MAR-07. PREDICTS-> 2025-JUN-02
Units conversion: 1 au= 149597870.700 km, c= 299792.458 km/s, 1 day= 86400.0 s 
Table cut-offs 1: Elevation (-90.0deg=NO ),Airmass (>38.000=NO), Daylight (YES)
Table cut-offs 2: Solar elongation (  0.0,180.0=NO ),Local Hour Angle( 0.0=NO )
Table cut-offs 3: RA/DEC angular rate (     0.0=NO )                           
*******************************************************************************
Initial IAU76/J2000 heliocentric ecliptic osculating elements (au, days, deg.):
  EPOCH=  2458226.5 ! 2018-Apr-18.0000000 (TDB)    RMSW= n.a.                  
   EC= .9975741722198472   QR= 1.55663257903246    TP= 2458261.6283815675      
   OM= 172.5780664128357   W= 72.61657512148747    IN= 84.69445280104227       
  Equivalent ICRF heliocentric cartesian coordinates (au, au/d):
   X=-1.091857230976521E+00  Y=-4.544188696153424E-01  Z= 1.120998862172552E+00
  VX= 1.630642470498751E-02 VY=-6.481787118028984E-03 VZ= 7.403953065693920E-03
Comet physical (GM= km^3/s^2; RAD= km):                                        
   GM= n.a.                RAD= n.a.                                           
   M1=  8.6      M2=  17.8     k1=  45.25  k2=  5.      PHCOF=  .030           
*******************************************************************************
 Date__(UT)__HR:MN     R.A._________(ICRF)_________DEC
******************************************************
$$SOE
 2018-Aug-28 11:05  m  20 26 43.245543 +66 39 55.60406
 2018-Aug-28 11:06  m  20 26 43.227198 +66 39 53.79134
 2018-Aug-28 11:07  m  20 26 43.208865 +66 39 51.97854
 2018-Aug-28 11:08  m  20 26 43.190545 +66 39 50.16565
 2018-Aug-28 11:09  m  20 26 43.172239 +66 39 48.35267
 2018-Aug-28 11:10  m  20 26 43.153945 +66 39 46.53961
 2018-Aug-28 11:11  m  20 26 43.135665 +66 39 44.72646
 2018-Aug-28 11:12  m  20 26 43.117398 +66 39 42.91323
 2018-Aug-28 11:13  m  20 26 43.099144 +66 39 41.09991
 2018-Aug-28 11:14  m  20 26 43.080904 +66 39 39.28651
 2018-Aug-28 11:15  m  20 26 43.062677 +66 39 37.47302
 2018-Aug-28 11:16  m  20 26 43.044463 +66 39 35.65945
 2018-Aug-28 11:17  m  20 26 43.026263 +66 39 33.84579
 2018-Aug-28 11:18  m  20 26 43.008077 +66 39 32.03205
 2018-Aug-28 11:19  m  20 26 42.989904 +66 39 30.21822
 2018-Aug-28 11:20  m  20 26 42.971745 +66 39 28.40432
 2018-Aug-28 11:21  m  20 26 42.953600 +66 39 26.59033
 2018-Aug-28 11:22  m  20 26 42.935469 +66 39 24.77625
 2018-Aug-28 11:23  m  20 26 42.917351 +66 39 22.96210
 2018-Aug-28 11:24  m  20 26 42.899247 +66 39 21.14786
 2018-Aug-28 11:25  m  20 26 42.881157 +66 39 19.33354
 2018-Aug-28 11:26  m  20 26 42.863081 +66 39 17.51914
 2018-Aug-28 11:27  m  20 26 42.845020 +66 39 15.70466
 2018-Aug-28 11:28  m  20 26 42.826972 +66 39 13.89010
 2018-Aug-28 11:29  m  20 26 42.808938 +66 39 12.07546
 2018-Aug-28 11:30  m  20 26 42.790919 +66 39 10.26073
 2018-Aug-28 11:31  m  20 26 42.772914 +66 39 08.44593
 2018-Aug-28 11:32  m  20 26 42.754923 +66 39 06.63104
 2018-Aug-28 11:33  m  20 26 42.736946 +66 39 04.81608
 2018-Aug-28 11:34  m  20 26 42.718984 +66 39 03.00104
 2018-Aug-28 11:35  m  20 26 42.701037 +66 39 01.18592
 2018-Aug-28 11:36  m  20 26 42.683103 +66 38 59.37072
 2018-Aug-28 11:37  m  20 26 42.665185 +66 38 57.55544
 2018-Aug-28 11:38  m  20 26 42.647281 +66 38 55.74009
 2018-Aug-28 11:39  m  20 26 42.629391 +66 38 53.92465
 2018-Aug-28 11:40  m  20 26 42.611517 +66 38 52.10914
 2018-Aug-28 11:41  m  20 26 42.593656 +66 38 50.29355
 2018-Aug-28 11:42  m  20 26 42.575811 +66 38 48.47789
 2018-Aug-28 11:43  m  20 26 42.557981 +66 38 46.66215
 2018-Aug-28 11:44  m  20 26 42.540165 +66 38 44.84633
 2018-Aug-28 11:45  m  20 26 42.522364 +66 38 43.03044
 2018-Aug-28 11:46  m  20 26 42.504579 +66 38 41.21447
 2018-Aug-28 11:47  m  20 26 42.486808 +66 38 39.39843
 2018-Aug-28 11:48  m  20 26 42.469052 +66 38 37.58231
 2018-Aug-28 11:49  m  20 26 42.451312 +66 38 35.76611
 2018-Aug-28 11:50  m  20 26 42.433586 +66 38 33.94985
 2018-Aug-28 11:51  m  20 26 42.415876 +66 38 32.13350
 2018-Aug-28 11:52  m  20 26 42.398181 +66 38 30.31709
 2018-Aug-28 11:53  m  20 26 42.380501 +66 38 28.50060
 2018-Aug-28 11:54  m  20 26 42.362837 +66 38 26.68404
 2018-Aug-28 11:55  m  20 26 42.345188 +66 38 24.86740
 2018-Aug-28 11:56  m  20 26 42.327554 +66 38 23.05070
 2018-Aug-28 11:57  m  20 26 42.309936 +66 38 21.23392
 2018-Aug-28 11:58  m  20 26 42.292333 +66 38 19.41707
 2018-Aug-28 11:59  m  20 26 42.274746 +66 38 17.60015
 2018-Aug-28 12:00  m  20 26 42.257175 +66 38 15.78315
 2018-Aug-28 12:01  m  20 26 42.239619 +66 38 13.96609
 2018-Aug-28 12:02  m  20 26 42.222078 +66 38 12.14896
 2018-Aug-28 12:03  m  20 26 42.204554 +66 38 10.33175
 2018-Aug-28 12:04  m  20 26 42.187045 +66 38 08.51448
 2018-Aug-28 12:05  m  20 26 42.169552 +66 38 06.69714
 2018-Aug-28 12:06  m  20 26 42.152074 +66 38 04.87972
 2018-Aug-28 12:07  m  20 26 42.134613 +66 38 03.06224
 2018-Aug-28 12:08  m  20 26 42.117167 +66 38 01.24469
 2018-Aug-28 12:09  m  20 26 42.099738 +66 37 59.42707
 2018-Aug-28 12:10  m  20 26 42.082324 +66 37 57.60939
 2018-Aug-28 12:11  m  20 26 42.064927 +66 37 55.79164
 2018-Aug-28 12:12  m  20 26 42.047545 +66 37 53.97382
 2018-Aug-28 12:13  m  20 26 42.030180 +66 37 52.15593
 2018-Aug-28 12:14  m  20 26 42.012831 +66 37 50.33798
 2018-Aug-28 12:15  m  20 26 41.995498 +66 37 48.51996
 2018-Aug-28 12:16  m  20 26 41.978181 +66 37 46.70187
 2018-Aug-28 12:17  m  20 26 41.960880 +66 37 44.88372
 2018-Aug-28 12:18  m  20 26 41.943596 +66 37 43.06551
 2018-Aug-28 12:19  m  20 26 41.926328 +66 37 41.24723
 2018-Aug-28 12:20  m  20 26 41.909076 +66 37 39.42888
 2018-Aug-28 12:21  m  20 26 41.891841 +66 37 37.61047
 2018-Aug-28 12:22  m  20 26 41.874622 +66 37 35.79200
 2018-Aug-28 12:23  m  20 26 41.857420 +66 37 33.97347
 2018-Aug-28 12:24  m  20 26 41.840234 +66 37 32.15487
 2018-Aug-28 12:25  m  20 26 41.823065 +66 37 30.33621
 2018-Aug-28 12:26  m  20 26 41.805913 +66 37 28.51748
 2018-Aug-28 12:27  m  20 26 41.788777 +66 37 26.69870
 2018-Aug-28 12:28  m  20 26 41.771657 +66 37 24.87985
 2018-Aug-28 12:29  m  20 26 41.754555 +66 37 23.06094
 2018-Aug-28 12:30  m  20 26 41.737469 +66 37 21.24197
 2018-Aug-28 12:31  m  20 26 41.720400 +66 37 19.42294
 2018-Aug-28 12:32  m  20 26 41.703347 +66 37 17.60385
 2018-Aug-28 12:33  m  20 26 41.686312 +66 37 15.78470
 2018-Aug-28 12:34  m  20 26 41.669293 +66 37 13.96550
 2018-Aug-28 12:35  m  20 26 41.652291 +66 37 12.14623
 2018-Aug-28 12:36  m  20 26 41.635306 +66 37 10.32690
 2018-Aug-28 12:37  m  20 26 41.618338 +66 37 08.50752
 2018-Aug-28 12:38  m  20 26 41.601387 +66 37 06.68807
 2018-Aug-28 12:39  m  20 26 41.584453 +66 37 04.86857
 2018-Aug-28 12:40  m  20 26 41.567537 +66 37 03.04901
 2018-Aug-28 12:41  m  20 26 41.550637 +66 37 01.22940
 2018-Aug-28 12:42  m  20 26 41.533754 +66 36 59.40973
 2018-Aug-28 12:43  m  20 26 41.516889 +66 36 57.59000
 2018-Aug-28 12:44  m  20 26 41.500040 +66 36 55.77022
 2018-Aug-28 12:45  m  20 26 41.483209 +66 36 53.95038
 2018-Aug-28 12:46  m  20 26 41.466395 +66 36 52.13048
 2018-Aug-28 12:47  m  20 26 41.449598 +66 36 50.31053
 2018-Aug-28 12:48  m  20 26 41.432819 +66 36 48.49053
 2018-Aug-28 12:49  m  20 26 41.416057 +66 36 46.67047
 2018-Aug-28 12:50  m  20 26 41.399312 +66 36 44.85036
 2018-Aug-28 12:51  m  20 26 41.382585 +66 36 43.03020
 2018-Aug-28 12:52  m  20 26 41.365875 +66 36 41.20998
 2018-Aug-28 12:53  m  20 26 41.349183 +66 36 39.38971
 2018-Aug-28 12:54  m  20 26 41.332507 +66 36 37.56939
 2018-Aug-28 12:55  m  20 26 41.315850 +66 36 35.74902
 2018-Aug-28 12:56  m  20 26 41.299210 +66 36 33.92859
 2018-Aug-28 12:57  m  20 26 41.282587 +66 36 32.10811
 2018-Aug-28 12:58  m  20 26 41.265982 +66 36 30.28759
 2018-Aug-28 12:59  m  20 26 41.249395 +66 36 28.46701
 2018-Aug-28 13:00  m  20 26 41.232825 +66 36 26.64638
 2018-Aug-28 13:01  m  20 26 41.216273 +66 36 24.82571
 2018-Aug-28 13:02  m  20 26 41.199739 +66 36 23.00498
 2018-Aug-28 13:03  m  20 26 41.183222 +66 36 21.18421
 2018-Aug-28 13:04  m  20 26 41.166723 +66 36 19.36338
 2018-Aug-28 13:05  m  20 26 41.150242 +66 36 17.54251
 2018-Aug-28 13:06  m  20 26 41.133778 +66 36 15.72160
 2018-Aug-28 13:07  m  20 26 41.117332 +66 36 13.90063
 2018-Aug-28 13:08  m  20 26 41.100904 +66 36 12.07962
 2018-Aug-28 13:09  m  20 26 41.084494 +66 36 10.25856
